HST                     
1 20580U 90037B   26117.21580754  .00008137  00000+0  26302-3 0  9997
2 20580  28.4746  68.7822 0001662 301.5243  58.5190 15.30170094780759
POLAR                   
1 23802U 96013A   26115.66170527  .00000018  00000+0  00000+0 0  9990
2 23802  79.8025 227.6602 6417642 210.8763  86.7147  1.29845763144175
SWAS                    
1 25560U 98071A   26117.12134514  .00004746  00000+0  30360-3 0  9996
2 25560  69.8979 359.1736 0007318 310.7518  49.3010 15.09265602489561
CXO                     
1 25867U 99040B   26119.13194012  .00000562  00000+0  00000+0 0  9991
2 25867  55.4178 118.0274 7914890 310.5929   0.1646  0.37810555 17133
XMM-NEWTON              
1 25989U 99066A   26117.48801710 -.00000022  00000+0  00000+0 0  9992
2 25989  64.7433 283.6320 4689370  65.8291   0.0919  0.50130113 22753
TERRA                   
1 25994U 99068A   26117.27198513  .00000431  00000+0  96779-4 0  9993
2 25994  97.9501 168.8266 0003139  53.9282  10.6190 14.61061586402173
CLUSTER II-FM7 (SAMBA)  
1 26410U 00041A   26116.81760381  .00002042  00000+0  00000+0 0  9994
2 26410 149.6713  42.1462 8992296 258.6890   0.4419  0.44809102 20073
CLUSTER II-FM8 (TANGO)  
1 26464U 00045B   26118.88599557  .00002324  00000+0  00000+0 0  9994
2 26464 149.9537  43.4083 8998119 259.8366   1.1072  0.44400781 20076
ODIN                    
1 26702U 01007A   26117.05976731  .00050086  00000+0  54380-3 0  9991
2 26702  97.3969 155.2367 0001641  37.8799 322.2574 15.63355547381388
TIMED                   
1 26998U 01055B   26117.02439833  .00001076  00000+0  10159-3 0  9996
2 26998  74.0683 338.0281 0001727 210.3841 149.7244 14.95169763323173
CORIOLIS                
1 27640U 03001A   26117.03936768  .00000123  00000+0  78278-4 0  9993
2 27640  98.7144 124.7027 0014039   5.3357 354.7966 14.19930089206964
SORCE                   
1 27651U 03004A   26117.26165182  .00003438  00000+0  25842-3 0  9997
2 27651  39.9900 192.1629 0016327  43.3459 316.8616 15.03429856264231
MOST                    
1 27843U 03031D   26117.31428732  .00000081  00000+0  57085-4 0  9995
2 27843  98.7064 125.7477 0010629  44.4012 315.8015 14.21311527183480
SCISAT 1                
1 27858U 03036A   26117.17227390  .00000741  00000+0  99353-4 0  9994
2 27858  73.9289 272.6966 0007591 339.3537  20.7331 14.81388370223896
SWIFT                   
1 28485U 04047A   26116.58527097  .00051910  00000+0  52220-3 0  9990
2 28485  20.5524 221.4796 0001680 332.8404  27.1953 15.63634576178769
HINODE (SOLAR-B)        
1 29479U 06041A   26117.28959110  .00000834  00000+0  15174-3 0  9999
2 29479  98.0578 134.1893 0018960  89.9779 270.3599 14.68547722 47408
SHIJIAN-6 02A (SJ-6 02A)
1 29505U 06046A   26117.28914039  .00008363  00000+0  43441-3 0  9998
2 29505  97.6416 157.9852 0002066 351.4806   8.6391 15.16357278 64556
